ONEWEB-0165             
1 48233U 21031Z   26038.26813209 -.00000080  00000+0 -24919-3 0  9994
2 48233  87.9018 315.6138 0001620  89.7903 270.3413 13.14503776231291
ONEWEB-0199             
1 48234U 21031AA  26038.25227132 -.00000135  00000+0 -39846-3 0  9994
2 48234  87.9031 315.5976 0001647  74.0942 286.0369 13.14503470231199
ONEWEB-0203             
1 48235U 21031AB  26038.31886543 -.00000046  00000+0 -15835-3 0  9992
2 48235  87.9026 315.5832 0001474  81.6634 278.4663 13.14504396231218
ONEWEB-0197             
1 48236U 21031AC  26038.29336697  .00000281  00000+0  72219-3 0  9998
2 48236  87.9027 315.5884 0001958  72.7787 287.3557 13.14503887231129
ONEWEB-0194             
1 48237U 21031AD  26038.27288291  .00000029  00000+0  42875-4 0  9999
2 48237  87.9029 315.6092 0001483  72.3356 287.7936 13.14505475231293
ONEWEB-0193             
1 48238U 21031AE  26038.28874936  .00000234  00000+0  59754-3 0  9999
2 48238  87.9026 315.5994 0001361  65.5401 294.5870 13.14503937231240
ONEWEB-0191             
1 48239U 21031AF  26038.29984719  .00000315  00000+0  81634-3 0  9994
2 48239  87.9032 315.5909 0001699  75.8403 284.2916 13.14503752231101
ONEWEB-0195             
1 48240U 21031AG  26038.27684503  .00000184  00000+0  46140-3 0  9999
2 48240  87.9026 315.5926 0001719  91.1492 268.9835 13.14504478231089
ONEWEB-0201             
1 48241U 21031AH  26038.26508681 -.00000035  00000+0 -12795-3 0  9997
2 48241  87.9019 315.6264 0001979  80.3096 279.8257 13.14503313231318
ONEWEB-0207             
1 48242U 21031AJ  26038.24513313 -.00000051  00000+0 -17331-3 0  9993
2 48242  87.9029 315.5992 0001943  77.9718 282.1630 13.14503866231226
ONEWEB-0208             
1 48243U 21031AK  26038.30301449  .00000199  00000+0  50108-3 0  9996
2 48243  87.9031 315.6012 0001635  83.5309 276.6006 13.14503324231247
ONEWEB-0200             
1 48244U 21031AL  26038.26653756 -.00000045  00000+0 -15577-3 0  9996
2 48244  87.9026 315.5972 0001755  81.7399 278.3930 13.14502943231160
ONEWEB-0217             
1 48245U 21031AM  26038.28240161  .00000056  00000+0  11736-3 0  9994
2 48245  87.9032 315.5927 0001771  92.3983 267.7350 13.14503025231118
ONEWEB-0211             
1 48767U 21045A   26038.19514687 -.00000574  00000+0 -15453-2 0  9991
2 48767  87.9001 285.0636 0001299  66.3658 293.7609 13.16137070227347
ONEWEB-0223             
1 48768U 21045B   26038.21129393  .00000098  00000+0  22710-3 0  9995
2 48768  87.8987 285.1346 0001161  92.2761 267.8502 13.15549577227319
ONEWEB-0230             
1 48769U 21045C   26038.18276893 -.00000003  00000+0 -41002-4 0  9994
2 48769  87.8977 285.1656 0001602  76.1377 283.9931 13.15548393227575
