[{"OBJECT_NAME":"ONEWEB-0165","OBJECT_ID":"2021-031Z","EPOCH":"2026-02-07T06:26:06.612576","MEAN_MOTION":13.14503776,"ECCENTRICITY":0.00016209,"INCLINATION":87.9018,"RA_OF_ASC_NODE":315.6138,"ARG_OF_PERICENTER":89.7903,"MEAN_ANOMALY":270.3413,"EPHEMERIS_TYPE":0,"CLASSIFICATION_TYPE":"U","NORAD_CAT_ID":48233,"ELEMENT_SET_NO":999,"REV_AT_EPOCH":23129,"BSTAR":-0.00024919357,"MEAN_MOTION_DOT":-8.0e-7,"MEAN_MOTION_DDOT":0},{"OBJECT_NAME":"ONEWEB-0199","OBJECT_ID":"2021-031AA","EPOCH":"2026-02-07T06:03:16.242048","MEAN_MOTION":13.1450347,"ECCENTRICITY":0.00016477,"INCLINATION":87.9031,"RA_OF_ASC_NODE":315.5976,"ARG_OF_PERICENTER":74.0942,"MEAN_ANOMALY":286.0369,"EPHEMERIS_TYPE":0,"CLASSIFICATION_TYPE":"U","NORAD_CAT_ID":48234,"ELEMENT_SET_NO":999,"REV_AT_EPOCH":23119,"BSTAR":-0.00039845509,"MEAN_MOTION_DOT":-1.35e-6,"MEAN_MOTION_DDOT":0},{"OBJECT_NAME":"ONEWEB-0203","OBJECT_ID":"2021-031AB","EPOCH":"2026-02-07T07:39:09.973152","MEAN_MOTION":13.14504396,"ECCENTRICITY":0.00014744,"INCLINATION":87.9026,"RA_OF_ASC_NODE":315.5832,"ARG_OF_PERICENTER":81.6634,"MEAN_ANOMALY":278.4663,"EPHEMERIS_TYPE":0,"CLASSIFICATION_TYPE":"U","NORAD_CAT_ID":48235,"ELEMENT_SET_NO":999,"REV_AT_EPOCH":23121,"BSTAR":-0.00015834809,"MEAN_MOTION_DOT":-4.6e-7,"MEAN_MOTION_DDOT":0},{"OBJECT_NAME":"ONEWEB-0197","OBJECT_ID":"2021-031AC","EPOCH":"2026-02-07T07:02:26.906208","MEAN_MOTION":13.14503887,"ECCENTRICITY":0.00019583,"INCLINATION":87.9027,"RA_OF_ASC_NODE":315.5884,"ARG_OF_PERICENTER":72.7787,"MEAN_ANOMALY":287.3557,"EPHEMERIS_TYPE":0,"CLASSIFICATION_TYPE":"U","NORAD_CAT_ID":48236,"ELEMENT_SET_NO":999,"REV_AT_EPOCH":23112,"BSTAR":0.00072218682,"MEAN_MOTION_DOT":2.81e-6,"MEAN_MOTION_DDOT":0},{"OBJECT_NAME":"ONEWEB-0194","OBJECT_ID":"2021-031AD","EPOCH":"2026-02-07T06:32:57.083424","MEAN_MOTION":13.14505475,"ECCENTRICITY":0.00014833,"INCLINATION":87.9029,"RA_OF_ASC_NODE":315.6092,"ARG_OF_PERICENTER":72.3356,"MEAN_ANOMALY":287.7936,"EPHEMERIS_TYPE":0,"CLASSIFICATION_TYPE":"U","NORAD_CAT_ID":48237,"ELEMENT_SET_NO":999,"REV_AT_EPOCH":23129,"BSTAR":4.2875301e-5,"MEAN_MOTION_DOT":2.9e-7,"MEAN_MOTION_DDOT":0},{"OBJECT_NAME":"ONEWEB-0193","OBJECT_ID":"2021-031AE","EPOCH":"2026-02-07T06:55:47.944704","MEAN_MOTION":13.14503937,"ECCENTRICITY":0.00013611,"INCLINATION":87.9026,"RA_OF_ASC_NODE":315.5994,"ARG_OF_PERICENTER":65.5401,"MEAN_ANOMALY":294.587,"EPHEMERIS_TYPE":0,"CLASSIFICATION_TYPE":"U","NORAD_CAT_ID":48238,"ELEMENT_SET_NO":999,"REV_AT_EPOCH":23124,"BSTAR":0.00059754124,"MEAN_MOTION_DOT":2.34e-6,"MEAN_MOTION_DDOT":0},{"OBJECT_NAME":"ONEWEB-0191","OBJECT_ID":"2021-031AF","EPOCH":"2026-02-07T07:11:46.797216","MEAN_MOTION":13.14503752,"ECCENTRICITY":0.0001699,"INCLINATION":87.9032,"RA_OF_ASC_NODE":315.5909,"ARG_OF_PERICENTER":75.8403,"MEAN_ANOMALY":284.2916,"EPHEMERIS_TYPE":0,"CLASSIFICATION_TYPE":"U","NORAD_CAT_ID":48239,"ELEMENT_SET_NO":999,"REV_AT_EPOCH":23110,"BSTAR":0.00081633772,"MEAN_MOTION_DOT":3.15e-6,"MEAN_MOTION_DDOT":0},{"OBJECT_NAME":"ONEWEB-0195","OBJECT_ID":"2021-031AG","EPOCH":"2026-02-07T06:38:39.410592","MEAN_MOTION":13.14504478,"ECCENTRICITY":0.00017196,"INCLINATION":87.9026,"RA_OF_ASC_NODE":315.5926,"ARG_OF_PERICENTER":91.1492,"MEAN_ANOMALY":268.9835,"EPHEMERIS_TYPE":0,"CLASSIFICATION_TYPE":"U","NORAD_CAT_ID":48240,"ELEMENT_SET_NO":999,"REV_AT_EPOCH":23108,"BSTAR":0.00046140382,"MEAN_MOTION_DOT":1.84e-6,"MEAN_MOTION_DDOT":0},{"OBJECT_NAME":"ONEWEB-0201","OBJECT_ID":"2021-031AH","EPOCH":"2026-02-07T06:21:43.500384","MEAN_MOTION":13.14503313,"ECCENTRICITY":0.00019794,"INCLINATION":87.9019,"RA_OF_ASC_NODE":315.6264,"ARG_OF_PERICENTER":80.3096,"MEAN_ANOMALY":279.8257,"EPHEMERIS_TYPE":0,"CLASSIFICATION_TYPE":"U","NORAD_CAT_ID":48241,"ELEMENT_SET_NO":999,"REV_AT_EPOCH":23131,"BSTAR":-0.00012794833,"MEAN_MOTION_DOT":-3.5e-7,"MEAN_MOTION_DDOT":0},{"OBJECT_NAME":"ONEWEB-0207","OBJECT_ID":"2021-031AJ","EPOCH":"2026-02-07T05:52:59.502432","MEAN_MOTION":13.14503866,"ECCENTRICITY":0.00019439,"INCLINATION":87.9029,"RA_OF_ASC_NODE":315.5992,"ARG_OF_PERICENTER":77.9718,"MEAN_ANOMALY":282.163,"EPHEMERIS_TYPE":0,"CLASSIFICATION_TYPE":"U","NORAD_CAT_ID":48242,"ELEMENT_SET_NO":999,"REV_AT_EPOCH":23122,"BSTAR":-0.0001733135,"MEAN_MOTION_DOT":-5.1e-7,"MEAN_MOTION_DDOT":0},{"OBJECT_NAME":"ONEWEB-0208","OBJECT_ID":"2021-031AK","EPOCH":"2026-02-07T07:16:20.451936","MEAN_MOTION":13.14503324,"ECCENTRICITY":0.00016356,"INCLINATION":87.9031,"RA_OF_ASC_NODE":315.6012,"ARG_OF_PERICENTER":83.5309,"MEAN_ANOMALY":276.6006,"EPHEMERIS_TYPE":0,"CLASSIFICATION_TYPE":"U","NORAD_CAT_ID":48243,"ELEMENT_SET_NO":999,"REV_AT_EPOCH":23124,"BSTAR":0.0005010783,"MEAN_MOTION_DOT":1.99e-6,"MEAN_MOTION_DDOT":0},{"OBJECT_NAME":"ONEWEB-0200","OBJECT_ID":"2021-031AL","EPOCH":"2026-02-07T06:23:48.845184","MEAN_MOTION":13.14502943,"ECCENTRICITY":0.00017554,"INCLINATION":87.9026,"RA_OF_ASC_NODE":315.5972,"ARG_OF_PERICENTER":81.7399,"MEAN_ANOMALY":278.393,"EPHEMERIS_TYPE":0,"CLASSIFICATION_TYPE":"U","NORAD_CAT_ID":48244,"ELEMENT_SET_NO":999,"REV_AT_EPOCH":23116,"BSTAR":-0.00015577243,"MEAN_MOTION_DOT":-4.5e-7,"MEAN_MOTION_DDOT":0},{"OBJECT_NAME":"ONEWEB-0217","OBJECT_ID":"2021-031AM","EPOCH":"2026-02-07T06:46:39.499104","MEAN_MOTION":13.14503025,"ECCENTRICITY":0.00017715,"INCLINATION":87.9032,"RA_OF_ASC_NODE":315.5927,"ARG_OF_PERICENTER":92.3983,"MEAN_ANOMALY":267.735,"EPHEMERIS_TYPE":0,"CLASSIFICATION_TYPE":"U","NORAD_CAT_ID":48245,"ELEMENT_SET_NO":999,"REV_AT_EPOCH":23111,"BSTAR":0.0001173568,"MEAN_MOTION_DOT":5.6e-7,"MEAN_MOTION_DDOT":0},{"OBJECT_NAME":"ONEWEB-0211","OBJECT_ID":"2021-045A","EPOCH":"2026-02-07T04:41:00.689568","MEAN_MOTION":13.1613707,"ECCENTRICITY":0.00012997,"INCLINATION":87.9001,"RA_OF_ASC_NODE":285.0636,"ARG_OF_PERICENTER":66.3658,"MEAN_ANOMALY":293.7609,"EPHEMERIS_TYPE":0,"CLASSIFICATION_TYPE":"U","NORAD_CAT_ID":48767,"ELEMENT_SET_NO":999,"REV_AT_EPOCH":22734,"BSTAR":-0.0015452752,"MEAN_MOTION_DOT":-5.74e-6,"MEAN_MOTION_DDOT":0},{"OBJECT_NAME":"ONEWEB-0223","OBJECT_ID":"2021-045B","EPOCH":"2026-02-07T05:04:15.795552","MEAN_MOTION":13.15549577,"ECCENTRICITY":0.00011613,"INCLINATION":87.8987,"RA_OF_ASC_NODE":285.1346,"ARG_OF_PERICENTER":92.2761,"MEAN_ANOMALY":267.8502,"EPHEMERIS_TYPE":0,"CLASSIFICATION_TYPE":"U","NORAD_CAT_ID":48768,"ELEMENT_SET_NO":999,"REV_AT_EPOCH":22731,"BSTAR":0.00022710423,"MEAN_MOTION_DOT":9.8e-7,"MEAN_MOTION_DDOT":0},{"OBJECT_NAME":"ONEWEB-0230","OBJECT_ID":"2021-045C","EPOCH":"2026-02-07T04:23:11.235552","MEAN_MOTION":13.15548393,"ECCENTRICITY":0.00016024,"INCLINATION":87.8977,"RA_OF_ASC_NODE":285.1656,"ARG_OF_PERICENTER":76.1377,"MEAN_ANOMALY":283.9931,"EPHEMERIS_TYPE":0,"CLASSIFICATION_TYPE":"U","NORAD_CAT_ID":48769,"ELEMENT_SET_NO":999,"REV_AT_EPOCH":22757,"BSTAR":-4.1002449e-5,"MEAN_MOTION_DOT":-3.0e-8,"MEAN_MOTION_DDOT":0}]
